OBJECT C                
1 57582U 23117C   24271.14688300  .00015120  00000+0  73334-3 0  9998
2 57582  97.4776 341.9317 0008923 301.4361  58.6000 15.18564977 62647
